STARLINK-35291          
1 66083U 25235AB  25304.68179606 -.00076148  00000+0 -37409-3 0  9990
2 66083  53.1498 129.2153 0004221 334.5766  25.5048 15.81511085  3070
STARLINK-35379          
1 66084U 25235AC  25304.68141852  .00477378  00000+0  22638-2 0  9998
2 66084  53.1497 129.2122 0003037 324.0174  36.0644 15.81133032  3102
STARLINK-35370          
1 66085U 25235AD  25304.74421544  .00389115  00000+0  18853-2 0  9990
2 66085  53.1481 128.8908 0001775 343.4235  16.6729 15.80898144  3089
STARLINK-35596          
1 66086U 25236A   25304.83336806 -.01426963  00000+0 -88377-2 0  9992
2 66086  53.1573 348.1918 0001171  65.9928 356.9861 15.79095029  3148
STARLINK-35563          
1 66087U 25236B   25304.83336806 -.01433764  00000+0 -88896-2 0  9996
2 66087  53.1572 348.1876 0000810  80.1441 344.8796 15.79088227  3087
STARLINK-35461          
1 66088U 25236C   25304.83336806 -.01448598  00000+0 -90211-2 0  9992
2 66088  53.1572 348.1782 0001185  65.6328   3.8586 15.79017602  3080
STARLINK-35571          
1 66089U 25236D   25304.83336806 -.01440847  00000+0 -89513-2 0  9995
2 66089  53.1573 348.1832 0001121  74.2860 352.9506 15.79055412  3143
STARLINK-35570          
1 66090U 25236E   25304.83336806 -.01457405  00000+0 -91046-2 0  9999
2 66090  53.1573 348.1737 0001291  68.6005   3.2415 15.78964904  3144
STARLINK-35532          
1 66091U 25236F   25304.83336806 -.01467284  00000+0 -91898-2 0  9991
2 66091  53.1574 348.1689 0001125  66.7865   7.2867 15.78930299  3146
STARLINK-35527          
1 66092U 25236G   25304.83336806 -.01480044  00000+0 -93041-2 0  9993
2 66092  53.1572 348.1638 0001192  69.5163   6.9339 15.78873945  3149
STARLINK-35500          
1 66093U 25236H   25304.83336806 -.01492843  00000+0 -94031-2 0  9994
2 66093  53.1573 348.1594 0001146  63.4387  15.1366 15.78856693  3145
STARLINK-35528          
1 66094U 25236J   25304.83336806 -.01530302  00000+0 -96975-2 0  9997
2 66094  53.1572 348.1544 0000953  75.3101   5.6829 15.78801639  3149
