CCSDS_OMM_VERS = 2.0
CREATION_DATE  = 
ORIGINATOR     = 

OBJECT_NAME    = STARLINK-35291
OBJECT_ID      = 2025-235AB
CENTER_NAME    = EARTH
REF_FRAME      = TEME
TIME_SYSTEM    = UTC
MEAN_ELEMENT_THEORY = SGP/SGP4

EPOCH          = 2025-10-31T16:21:47.179584
MEAN_MOTION    = 15.81511085
ECCENTRICITY   = .0004221
INCLINATION    = 53.1498
RA_OF_ASC_NODE = 129.2153
ARG_OF_PERICENTER = 334.5766
MEAN_ANOMALY   = 25.5048

EPHEMERIS_TYPE = 0
CLASSIFICATION_TYPE = U
NORAD_CAT_ID   = 66083
ELEMENT_SET_NO = 999
REV_AT_EPOCH   = 307
BSTAR          = -.37409E-3
MEAN_MOTION_DOT = -.76148E-3
MEAN_MOTION_DDOT = 0

CCSDS_OMM_VERS = 2.0
CREATION_DATE  = 
ORIGINATOR     = 

OBJECT_NAME    = STARLINK-35379
OBJECT_ID      = 2025-235AC
CENTER_NAME    = EARTH
REF_FRAME      = TEME
TIME_SYSTEM    = UTC
MEAN_ELEMENT_THEORY = SGP/SGP4

EPOCH          = 2025-10-31T16:21:14.560128
MEAN_MOTION    = 15.81133032
ECCENTRICITY   = .0003037
INCLINATION    = 53.1497
RA_OF_ASC_NODE = 129.2122
ARG_OF_PERICENTER = 324.0174
MEAN_ANOMALY   = 36.0644

EPHEMERIS_TYPE = 0
CLASSIFICATION_TYPE = U
NORAD_CAT_ID   = 66084
ELEMENT_SET_NO = 999
REV_AT_EPOCH   = 310
BSTAR          = .22638E-2
MEAN_MOTION_DOT = .477378E-2
MEAN_MOTION_DDOT = 0

CCSDS_OMM_VERS = 2.0
CREATION_DATE  = 
ORIGINATOR     = 

OBJECT_NAME    = STARLINK-35370
OBJECT_ID      = 2025-235AD
CENTER_NAME    = EARTH
REF_FRAME      = TEME
TIME_SYSTEM    = UTC
MEAN_ELEMENT_THEORY = SGP/SGP4

EPOCH          = 2025-10-31T17:51:40.214016
MEAN_MOTION    = 15.80898144
ECCENTRICITY   = .0001775
INCLINATION    = 53.1481
RA_OF_ASC_NODE = 128.8908
ARG_OF_PERICENTER = 343.4235
MEAN_ANOMALY   = 16.6729

EPHEMERIS_TYPE = 0
CLASSIFICATION_TYPE = U
NORAD_CAT_ID   = 66085
ELEMENT_SET_NO = 999
REV_AT_EPOCH   = 308
BSTAR          = .18853E-2
MEAN_MOTION_DOT = .389115E-2
MEAN_MOTION_DDOT = 0

CCSDS_OMM_VERS = 2.0
CREATION_DATE  = 
ORIGINATOR     = 

OBJECT_NAME    = STARLINK-35596
OBJECT_ID      = 2025-236A
CENTER_NAME    = EARTH
REF_FRAME      = TEME
TIME_SYSTEM    = UTC
MEAN_ELEMENT_THEORY = SGP/SGP4

EPOCH          = 2025-10-31T20:00:03.000384
MEAN_MOTION    = 15.79095029
ECCENTRICITY   = .0001171
INCLINATION    = 53.1573
RA_OF_ASC_NODE = 348.1918
ARG_OF_PERICENTER = 65.9928
MEAN_ANOMALY   = 356.9861

EPHEMERIS_TYPE = 0
CLASSIFICATION_TYPE = U
NORAD_CAT_ID   = 66086
ELEMENT_SET_NO = 999
REV_AT_EPOCH   = 314
BSTAR          = -.88377E-2
MEAN_MOTION_DOT = -.1426963E-1
MEAN_MOTION_DDOT = 0

CCSDS_OMM_VERS = 2.0
CREATION_DATE  = 
ORIGINATOR     = 

OBJECT_NAME    = STARLINK-35563
OBJECT_ID      = 2025-236B
CENTER_NAME    = EARTH
REF_FRAME      = TEME
TIME_SYSTEM    = UTC
MEAN_ELEMENT_THEORY = SGP/SGP4

EPOCH          = 2025-10-31T20:00:03.000384
MEAN_MOTION    = 15.79088227
ECCENTRICITY   = .000081
INCLINATION    = 53.1572
RA_OF_ASC_NODE = 348.1876
ARG_OF_PERICENTER = 80.1441
MEAN_ANOMALY   = 344.8796

EPHEMERIS_TYPE = 0
CLASSIFICATION_TYPE = U
NORAD_CAT_ID   = 66087
ELEMENT_SET_NO = 999
REV_AT_EPOCH   = 308
BSTAR          = -.88896E-2
MEAN_MOTION_DOT = -.1433764E-1
MEAN_MOTION_DDOT = 0

CCSDS_OMM_VERS = 2.0
CREATION_DATE  = 
ORIGINATOR     = 

OBJECT_NAME    = STARLINK-35461
OBJECT_ID      = 2025-236C
CENTER_NAME    = EARTH
REF_FRAME      = TEME
TIME_SYSTEM    = UTC
MEAN_ELEMENT_THEORY = SGP/SGP4

EPOCH          = 2025-10-31T20:00:03.000384
MEAN_MOTION    = 15.79017602
ECCENTRICITY   = .0001185
INCLINATION    = 53.1572
RA_OF_ASC_NODE = 348.1782
ARG_OF_PERICENTER = 65.6328
MEAN_ANOMALY   = 3.8586

EPHEMERIS_TYPE = 0
CLASSIFICATION_TYPE = U
NORAD_CAT_ID   = 66088
ELEMENT_SET_NO = 999
REV_AT_EPOCH   = 308
BSTAR          = -.90211E-2
MEAN_MOTION_DOT = -.1448598E-1
MEAN_MOTION_DDOT = 0

CCSDS_OMM_VERS = 2.0
CREATION_DATE  = 
ORIGINATOR     = 

OBJECT_NAME    = STARLINK-35571
OBJECT_ID      = 2025-236D
CENTER_NAME    = EARTH
REF_FRAME      = TEME
TIME_SYSTEM    = UTC
MEAN_ELEMENT_THEORY = SGP/SGP4

EPOCH          = 2025-10-31T20:00:03.000384
MEAN_MOTION    = 15.79055412
ECCENTRICITY   = .0001121
INCLINATION    = 53.1573
RA_OF_ASC_NODE = 348.1832
ARG_OF_PERICENTER = 74.2860
MEAN_ANOMALY   = 352.9506

EPHEMERIS_TYPE = 0
CLASSIFICATION_TYPE = U
NORAD_CAT_ID   = 66089
ELEMENT_SET_NO = 999
REV_AT_EPOCH   = 314
BSTAR          = -.89513E-2
MEAN_MOTION_DOT = -.1440847E-1
MEAN_MOTION_DDOT = 0

CCSDS_OMM_VERS = 2.0
CREATION_DATE  = 
ORIGINATOR     = 

OBJECT_NAME    = STARLINK-35570
OBJECT_ID      = 2025-236E
CENTER_NAME    = EARTH
REF_FRAME      = TEME
TIME_SYSTEM    = UTC
MEAN_ELEMENT_THEORY = SGP/SGP4

EPOCH          = 2025-10-31T20:00:03.000384
MEAN_MOTION    = 15.78964904
ECCENTRICITY   = .0001291
INCLINATION    = 53.1573
RA_OF_ASC_NODE = 348.1737
ARG_OF_PERICENTER = 68.6005
MEAN_ANOMALY   = 3.2415

EPHEMERIS_TYPE = 0
CLASSIFICATION_TYPE = U
NORAD_CAT_ID   = 66090
ELEMENT_SET_NO = 999
REV_AT_EPOCH   = 314
BSTAR          = -.91046E-2
MEAN_MOTION_DOT = -.1457405E-1
MEAN_MOTION_DDOT = 0

CCSDS_OMM_VERS = 2.0
CREATION_DATE  = 
ORIGINATOR     = 

OBJECT_NAME    = STARLINK-35532
OBJECT_ID      = 2025-236F
CENTER_NAME    = EARTH
REF_FRAME      = TEME
TIME_SYSTEM    = UTC
MEAN_ELEMENT_THEORY = SGP/SGP4

EPOCH          = 2025-10-31T20:00:03.000384
MEAN_MOTION    = 15.78930299
ECCENTRICITY   = .0001125
INCLINATION    = 53.1574
RA_OF_ASC_NODE = 348.1689
ARG_OF_PERICENTER = 66.7865
MEAN_ANOMALY   = 7.2867

EPHEMERIS_TYPE = 0
CLASSIFICATION_TYPE = U
NORAD_CAT_ID   = 66091
ELEMENT_SET_NO = 999
REV_AT_EPOCH   = 314
BSTAR          = -.91898E-2
MEAN_MOTION_DOT = -.1467284E-1
MEAN_MOTION_DDOT = 0

CCSDS_OMM_VERS = 2.0
CREATION_DATE  = 
ORIGINATOR     = 

OBJECT_NAME    = STARLINK-35527
OBJECT_ID      = 2025-236G
CENTER_NAME    = EARTH
REF_FRAME      = TEME
TIME_SYSTEM    = UTC
MEAN_ELEMENT_THEORY = SGP/SGP4

EPOCH          = 2025-10-31T20:00:03.000384
MEAN_MOTION    = 15.78873945
ECCENTRICITY   = .0001192
INCLINATION    = 53.1572
RA_OF_ASC_NODE = 348.1638
ARG_OF_PERICENTER = 69.5163
MEAN_ANOMALY   = 6.9339

EPHEMERIS_TYPE = 0
CLASSIFICATION_TYPE = U
NORAD_CAT_ID   = 66092
ELEMENT_SET_NO = 999
REV_AT_EPOCH   = 314
BSTAR          = -.93041E-2
MEAN_MOTION_DOT = -.1480044E-1
MEAN_MOTION_DDOT = 0

CCSDS_OMM_VERS = 2.0
CREATION_DATE  = 
ORIGINATOR     = 

OBJECT_NAME    = STARLINK-35500
OBJECT_ID      = 2025-236H
CENTER_NAME    = EARTH
REF_FRAME      = TEME
TIME_SYSTEM    = UTC
MEAN_ELEMENT_THEORY = SGP/SGP4

EPOCH          = 2025-10-31T20:00:03.000384
MEAN_MOTION    = 15.78856693
ECCENTRICITY   = .0001146
INCLINATION    = 53.1573
RA_OF_ASC_NODE = 348.1594
ARG_OF_PERICENTER = 63.4387
MEAN_ANOMALY   = 15.1366

EPHEMERIS_TYPE = 0
CLASSIFICATION_TYPE = U
NORAD_CAT_ID   = 66093
ELEMENT_SET_NO = 999
REV_AT_EPOCH   = 314
BSTAR          = -.94031E-2
MEAN_MOTION_DOT = -.1492843E-1
MEAN_MOTION_DDOT = 0

CCSDS_OMM_VERS = 2.0
CREATION_DATE  = 
ORIGINATOR     = 

OBJECT_NAME    = STARLINK-35528
OBJECT_ID      = 2025-236J
CENTER_NAME    = EARTH
REF_FRAME      = TEME
TIME_SYSTEM    = UTC
MEAN_ELEMENT_THEORY = SGP/SGP4

EPOCH          = 2025-10-31T20:00:03.000384
MEAN_MOTION    = 15.78801639
ECCENTRICITY   = .0000953
INCLINATION    = 53.1572
RA_OF_ASC_NODE = 348.1544
ARG_OF_PERICENTER = 75.3101
MEAN_ANOMALY   = 5.6829

EPHEMERIS_TYPE = 0
CLASSIFICATION_TYPE = U
NORAD_CAT_ID   = 66094
ELEMENT_SET_NO = 999
REV_AT_EPOCH   = 314
BSTAR          = -.96975E-2
MEAN_MOTION_DOT = -.1530302E-1
MEAN_MOTION_DDOT = 0

